{
  "type": "FeatureCollection",
  "attribution": "本地概念轮廓，仅用于断网可视化",
  "features": [
    {
      "type": "Feature",
      "properties": {
        "name": "上海市概念轮廓",
        "mode": "offline-concept"
      },
      "geometry": {
        "type": "MultiPolygon",
        "coordinates": [
          [[[120.86, 30.69], [121.24, 30.70], [121.61, 30.78], [121.92, 31.01], [121.83, 31.32], [121.61, 31.46], [121.25, 31.42], [120.90, 31.19], [120.86, 30.69]]],
          [[[121.18, 31.49], [121.58, 31.48], [121.89, 31.58], [121.79, 31.75], [121.43, 31.78], [121.18, 31.64], [121.18, 31.49]]]
        ]
      }
    }
  ]
}
